IRIDIUM 106             
1 41917U 17003A   25231.90479509  .00000091  00000+0  25511-4 0  9996
2 41917  86.3972 214.3736 0002490  99.7934 260.3543 14.34216610450023
IRIDIUM 103             
1 41918U 17003B   25231.96187673 -.00000038  00000+0 -20675-4 0  9990
2 41918  86.3974 214.2508 0001615  92.7166 267.4214 14.34217038450051
IRIDIUM 109             
1 41919U 17003C   25231.47984021  .00000047  00000+0  95797-5 0  9995
2 41919  86.3972 214.5064 0002178  85.1350 275.0094 14.34217839449953
IRIDIUM 102             
1 41920U 17003D   25231.93650749 -.00000016  00000+0 -12816-4 0  9993
2 41920  86.3974 214.2459 0002232  84.4971 275.6480 14.34217375450103
IRIDIUM 105             
1 41921U 17003E   25231.83747690  .00000238  00000+0  77854-4 0  9992
2 41921  86.4030 182.7844 0002104  86.4440 273.6996 14.34219079451942
IRIDIUM 104             
1 41922U 17003F   25231.94919060 -.00000016  00000+0 -12901-4 0  9995
2 41922  86.3976 214.2787 0001867  80.2646 279.8761 14.34217408450090
IRIDIUM 114             
1 41923U 17003G   25231.95553367  .00000065  00000+0  16277-4 0  9993
2 41923  86.3972 214.2599 0002060  91.5764 268.5667 14.34218103450071
IRIDIUM 108             
1 41924U 17003H   25231.91405713  .00000010  00000+0 -36223-5 0  9996
2 41924  86.4029 182.6501 0002342  86.6450 273.5014 14.34217586451928
